KUIPER-00177            
1 67766U 26030C   26065.17182864  .00035913  00000+0  10028-2 0  9992
2 67766  51.8825 235.9977 0001187  19.6879 340.4153 15.36376437  4551
KUIPER-00178            
1 67767U 26030D   26065.18624257  .00032566  00000+0  93971-3 0  9991
2 67767  51.8837 236.0898 0006070  36.5712 323.5687 15.35382747  4553
KUIPER-00180            
1 67768U 26030E   26065.28369811  .00050428  00000+0  16020-2 0  9991
2 67768  51.8808 235.9778 0014003  59.0097 301.2262 15.32055364  4560
KUIPER-00197            
1 67769U 26030F   26065.10898464  .00031666  00000+0  88973-3 0  9994
2 67769  51.8831 236.3255 0001373  58.7418 301.3703 15.36243768  4541
KUIPER-00198            
1 67770U 26030G   26065.17908230  .00036573  00000+0  10368-2 0  9990
2 67770  51.8812 236.0388 0003338  39.8351 320.2880 15.35891952  4555
KUIPER-00199            
1 67771U 26030H   26065.26684379  .00039364  00000+0  11737-2 0  9998
2 67771  51.8819 235.8706 0010316  50.1924 309.9968 15.34226023  4562
KUIPER-00200            
1 67772U 26030J   26065.10036761  .00032630  00000+0  89737-3 0  9993
2 67772  51.8799 236.2665 0001458 221.4476 138.6401 15.36896426  4540
KUIPER-00203            
1 67773U 26030K   26065.25002315 -.01906556  00000+0 -90878-1 0  9994
2 67773  51.8827 236.2658 0011621  47.3105  41.4429 15.21845252  3121
KUIPER-00205            
1 67774U 26030L   26065.10973828  .00023713  00000+0  67001-3 0  9991
2 67774  51.8808 236.3267 0002927  11.2023 348.9028 15.36225890  4549
KUIPER-00208            
1 67775U 26030M   26065.01993609  .00014642  00000+0  47194-3 0  9993
2 67775  51.8834 237.2206 0014676  50.5276 309.7004 15.32310669  4524
KUIPER-00209            
1 67776U 26030N   26065.25002315  .00046219  00000+0  15566-2 0  9997
2 67776  51.8821 236.1835 0012799  58.6486  96.7826 15.30232485  3951
KUIPER-00213            
1 67777U 26030P   26064.95531700  .00031067  00000+0  97697-3 0  9990
2 67777  51.8803 237.5273 0014942  54.0972 306.1397 15.32596197  4514
KUIPER-00214            
1 67778U 26030Q   26065.10318389  .00023438  00000+0  65509-3 0  9995
2 67778  51.8837 236.2903 0000491 202.4818 157.6148 15.36573742  4541
KUIPER-00215            
1 67779U 26030R   26065.26518404  .00038203  00000+0  11363-2 0  9997
2 67779  51.8846 235.8680 0010062  50.2698 309.9173 15.34321882  4565
KUIPER-00218            
1 67780U 26030S   26065.25521595  .00024276  00000+0  71201-3 0  9996
2 67780  51.8839 235.8022 0006657  41.3580 318.7909 15.35027106  4563
KUIPER-00220            
1 67781U 26030T   26065.26155309  .00043087  00000+0  12677-2 0  9996
2 67781  51.8820 235.8374 0008301  45.3480 314.8181 15.34623232  4565
