[{"OBJECT_NAME":"KUIPER-00177","OBJECT_ID":"2026-030C","EPOCH":"2026-03-06T04:07:25.994496","MEAN_MOTION":15.36376437,"ECCENTRICITY":0.00011875,"INCLINATION":51.8825,"RA_OF_ASC_NODE":235.9977,"ARG_OF_PERICENTER":19.6879,"MEAN_ANOMALY":340.4153,"EPHEMERIS_TYPE":0,"CLASSIFICATION_TYPE":"U","NORAD_CAT_ID":67766,"ELEMENT_SET_NO":999,"REV_AT_EPOCH":455,"BSTAR":0.001002807,"MEAN_MOTION_DOT":0.00035913,"MEAN_MOTION_DDOT":0},{"OBJECT_NAME":"KUIPER-00178","OBJECT_ID":"2026-030D","EPOCH":"2026-03-06T04:28:11.358048","MEAN_MOTION":15.35382747,"ECCENTRICITY":0.00060709,"INCLINATION":51.8837,"RA_OF_ASC_NODE":236.0898,"ARG_OF_PERICENTER":36.5712,"MEAN_ANOMALY":323.5687,"EPHEMERIS_TYPE":0,"CLASSIFICATION_TYPE":"U","NORAD_CAT_ID":67767,"ELEMENT_SET_NO":999,"REV_AT_EPOCH":455,"BSTAR":0.00093971055,"MEAN_MOTION_DOT":0.00032566,"MEAN_MOTION_DDOT":0},{"OBJECT_NAME":"KUIPER-00180","OBJECT_ID":"2026-030E","EPOCH":"2026-03-06T06:48:31.516704","MEAN_MOTION":15.32055364,"ECCENTRICITY":0.00140035,"INCLINATION":51.8808,"RA_OF_ASC_NODE":235.9778,"ARG_OF_PERICENTER":59.0097,"MEAN_ANOMALY":301.2262,"EPHEMERIS_TYPE":0,"CLASSIFICATION_TYPE":"U","NORAD_CAT_ID":67768,"ELEMENT_SET_NO":999,"REV_AT_EPOCH":456,"BSTAR":0.0016020474,"MEAN_MOTION_DOT":0.00050428,"MEAN_MOTION_DDOT":0},{"OBJECT_NAME":"KUIPER-00197","OBJECT_ID":"2026-030F","EPOCH":"2026-03-06T02:36:56.272896","MEAN_MOTION":15.36243768,"ECCENTRICITY":0.00013737,"INCLINATION":51.8831,"RA_OF_ASC_NODE":236.3255,"ARG_OF_PERICENTER":58.7418,"MEAN_ANOMALY":301.3703,"EPHEMERIS_TYPE":0,"CLASSIFICATION_TYPE":"U","NORAD_CAT_ID":67769,"ELEMENT_SET_NO":999,"REV_AT_EPOCH":454,"BSTAR":0.00088972812,"MEAN_MOTION_DOT":0.00031666,"MEAN_MOTION_DDOT":0},{"OBJECT_NAME":"KUIPER-00198","OBJECT_ID":"2026-030G","EPOCH":"2026-03-06T04:17:52.710720","MEAN_MOTION":15.35891952,"ECCENTRICITY":0.00033385,"INCLINATION":51.8812,"RA_OF_ASC_NODE":236.0388,"ARG_OF_PERICENTER":39.8351,"MEAN_ANOMALY":320.288,"EPHEMERIS_TYPE":0,"CLASSIFICATION_TYPE":"U","NORAD_CAT_ID":67770,"ELEMENT_SET_NO":999,"REV_AT_EPOCH":455,"BSTAR":0.0010368081,"MEAN_MOTION_DOT":0.00036573,"MEAN_MOTION_DDOT":0},{"OBJECT_NAME":"KUIPER-00199","OBJECT_ID":"2026-030H","EPOCH":"2026-03-06T06:24:15.303456","MEAN_MOTION":15.34226023,"ECCENTRICITY":0.00103164,"INCLINATION":51.8819,"RA_OF_ASC_NODE":235.8706,"ARG_OF_PERICENTER":50.1924,"MEAN_ANOMALY":309.9968,"EPHEMERIS_TYPE":0,"CLASSIFICATION_TYPE":"U","NORAD_CAT_ID":67771,"ELEMENT_SET_NO":999,"REV_AT_EPOCH":456,"BSTAR":0.0011737477,"MEAN_MOTION_DOT":0.00039364,"MEAN_MOTION_DDOT":0},{"OBJECT_NAME":"KUIPER-00200","OBJECT_ID":"2026-030J","EPOCH":"2026-03-06T02:24:31.761504","MEAN_MOTION":15.36896426,"ECCENTRICITY":0.00014584,"INCLINATION":51.8799,"RA_OF_ASC_NODE":236.2665,"ARG_OF_PERICENTER":221.4476,"MEAN_ANOMALY":138.6401,"EPHEMERIS_TYPE":0,"CLASSIFICATION_TYPE":"U","NORAD_CAT_ID":67772,"ELEMENT_SET_NO":999,"REV_AT_EPOCH":454,"BSTAR":0.00089737222,"MEAN_MOTION_DOT":0.0003263,"MEAN_MOTION_DDOT":0},{"OBJECT_NAME":"KUIPER-00203","OBJECT_ID":"2026-030K","EPOCH":"2026-03-06T06:00:02.000160","MEAN_MOTION":15.21845252,"ECCENTRICITY":0.00116216,"INCLINATION":51.8827,"RA_OF_ASC_NODE":236.2658,"ARG_OF_PERICENTER":47.3105,"MEAN_ANOMALY":41.4429,"EPHEMERIS_TYPE":0,"CLASSIFICATION_TYPE":"U","NORAD_CAT_ID":67773,"ELEMENT_SET_NO":999,"REV_AT_EPOCH":312,"BSTAR":-0.090878226,"MEAN_MOTION_DOT":-0.01906556,"MEAN_MOTION_DDOT":0},{"OBJECT_NAME":"KUIPER-00205","OBJECT_ID":"2026-030L","EPOCH":"2026-03-06T02:38:01.387392","MEAN_MOTION":15.3622589,"ECCENTRICITY":0.00029273,"INCLINATION":51.8808,"RA_OF_ASC_NODE":236.3267,"ARG_OF_PERICENTER":11.2023,"MEAN_ANOMALY":348.9028,"EPHEMERIS_TYPE":0,"CLASSIFICATION_TYPE":"U","NORAD_CAT_ID":67774,"ELEMENT_SET_NO":999,"REV_AT_EPOCH":454,"BSTAR":0.0006700079,"MEAN_MOTION_DOT":0.00023713,"MEAN_MOTION_DDOT":0},{"OBJECT_NAME":"KUIPER-00208","OBJECT_ID":"2026-030M","EPOCH":"2026-03-06T00:28:42.478176","MEAN_MOTION":15.32310669,"ECCENTRICITY":0.00146763,"INCLINATION":51.8834,"RA_OF_ASC_NODE":237.2206,"ARG_OF_PERICENTER":50.5276,"MEAN_ANOMALY":309.7004,"EPHEMERIS_TYPE":0,"CLASSIFICATION_TYPE":"U","NORAD_CAT_ID":67775,"ELEMENT_SET_NO":999,"REV_AT_EPOCH":452,"BSTAR":0.00047193658,"MEAN_MOTION_DOT":0.00014642,"MEAN_MOTION_DDOT":0},{"OBJECT_NAME":"KUIPER-00209","OBJECT_ID":"2026-030N","EPOCH":"2026-03-06T06:00:02.000160","MEAN_MOTION":15.30232485,"ECCENTRICITY":0.00127993,"INCLINATION":51.8821,"RA_OF_ASC_NODE":236.1835,"ARG_OF_PERICENTER":58.6486,"MEAN_ANOMALY":96.7826,"EPHEMERIS_TYPE":0,"CLASSIFICATION_TYPE":"U","NORAD_CAT_ID":67776,"ELEMENT_SET_NO":999,"REV_AT_EPOCH":395,"BSTAR":0.0015565586,"MEAN_MOTION_DOT":0.00046219,"MEAN_MOTION_DDOT":0},{"OBJECT_NAME":"KUIPER-00213","OBJECT_ID":"2026-030P","EPOCH":"2026-03-05T22:55:39.388800","MEAN_MOTION":15.32596197,"ECCENTRICITY":0.00149423,"INCLINATION":51.8803,"RA_OF_ASC_NODE":237.5273,"ARG_OF_PERICENTER":54.0972,"MEAN_ANOMALY":306.1397,"EPHEMERIS_TYPE":0,"CLASSIFICATION_TYPE":"U","NORAD_CAT_ID":67777,"ELEMENT_SET_NO":999,"REV_AT_EPOCH":451,"BSTAR":0.00097697323,"MEAN_MOTION_DOT":0.00031067,"MEAN_MOTION_DDOT":0},{"OBJECT_NAME":"KUIPER-00214","OBJECT_ID":"2026-030Q","EPOCH":"2026-03-06T02:28:35.088096","MEAN_MOTION":15.36573742,"ECCENTRICITY":4.912e-5,"INCLINATION":51.8837,"RA_OF_ASC_NODE":236.2903,"ARG_OF_PERICENTER":202.4818,"MEAN_ANOMALY":157.6148,"EPHEMERIS_TYPE":0,"CLASSIFICATION_TYPE":"U","NORAD_CAT_ID":67778,"ELEMENT_SET_NO":999,"REV_AT_EPOCH":454,"BSTAR":0.00065509064,"MEAN_MOTION_DOT":0.00023438,"MEAN_MOTION_DDOT":0},{"OBJECT_NAME":"KUIPER-00215","OBJECT_ID":"2026-030R","EPOCH":"2026-03-06T06:21:51.901056","MEAN_MOTION":15.34321882,"ECCENTRICITY":0.0010062,"INCLINATION":51.8846,"RA_OF_ASC_NODE":235.868,"ARG_OF_PERICENTER":50.2698,"MEAN_ANOMALY":309.9173,"EPHEMERIS_TYPE":0,"CLASSIFICATION_TYPE":"U","NORAD_CAT_ID":67779,"ELEMENT_SET_NO":999,"REV_AT_EPOCH":456,"BSTAR":0.0011362535,"MEAN_MOTION_DOT":0.00038203,"MEAN_MOTION_DDOT":0},{"OBJECT_NAME":"KUIPER-00218","OBJECT_ID":"2026-030S","EPOCH":"2026-03-06T06:07:30.658080","MEAN_MOTION":15.35027106,"ECCENTRICITY":0.00066577,"INCLINATION":51.8839,"RA_OF_ASC_NODE":235.8022,"ARG_OF_PERICENTER":41.358,"MEAN_ANOMALY":318.7909,"EPHEMERIS_TYPE":0,"CLASSIFICATION_TYPE":"U","NORAD_CAT_ID":67780,"ELEMENT_SET_NO":999,"REV_AT_EPOCH":456,"BSTAR":0.00071200553,"MEAN_MOTION_DOT":0.00024276,"MEAN_MOTION_DDOT":0},{"OBJECT_NAME":"KUIPER-00220","OBJECT_ID":"2026-030T","EPOCH":"2026-03-06T06:16:38.186976","MEAN_MOTION":15.34623232,"ECCENTRICITY":0.0008301,"INCLINATION":51.882,"RA_OF_ASC_NODE":235.8374,"ARG_OF_PERICENTER":45.348,"MEAN_ANOMALY":314.8181,"EPHEMERIS_TYPE":0,"CLASSIFICATION_TYPE":"U","NORAD_CAT_ID":67781,"ELEMENT_SET_NO":999,"REV_AT_EPOCH":456,"BSTAR":0.0012677134,"MEAN_MOTION_DOT":0.00043087,"MEAN_MOTION_DDOT":0}]
